STARLINK-36827          
1 67908U 26036E   26073.91668981 -.01908923  00000+0 -19045-1 0  9996
2 67908  42.9994 217.9522 0001578 286.6296 162.6497 15.67794035  4485
STARLINK-36822          
1 67909U 26036F   26073.91668981 -.01897128  00000+0 -22232-1 0  9993
2 67909  42.9995 218.0797 0001764 285.2563 112.8059 15.63812007  4489
STARLINK-36847          
1 67910U 26036G   26073.91668981 -.01896730  00000+0 -23000-1 0  9997
2 67910  42.9995 218.1027 0001864 284.9952 103.5299 15.62951324  4485
STARLINK-36736          
1 67911U 26036H   26073.91668981 -.01914220  00000+0 -16529-1 0  9991
2 67911  42.9993 217.8270 0001446 287.1236 212.1325 15.71246861  4486
STARLINK-36676          
1 67912U 26036J   26073.91668981 -.01913913  00000+0 -18066-1 0  9998
2 67912  42.9992 217.8708 0001422 285.4096 196.6125 15.69135939  4485
STARLINK-36690          
1 67913U 26036K   26073.91668981 -.01890916  00000+0 -17807-1 0  9998
2 67913  42.9992 217.8587 0001412 277.8455 208.9236 15.69155394  4481
STARLINK-36724          
1 67914U 26036L   26073.91668981 -.01891297  00000+0 -17529-1 0  9993
2 67914  42.9992 217.8260 0001121 287.5034 212.0024 15.69539927  4487
STARLINK-36723          
1 67915U 26036M   26073.91668981 -.01917408  00000+0 -16800-1 0  9998
2 67915  42.9993 217.8030 0001365 282.4890 226.3728 15.70909016  4489
STARLINK-36721          
1 67916U 26036N   26073.91668981 -.01914576  00000+0 -16749-1 0  9994
2 67916  42.9993 217.7807 0001349 281.4888 236.2603 15.70941174  4482
STARLINK-36722          
1 67917U 26036P   26073.91668981 -.01880836  00000+0 -14670-1 0  9997
2 67917  42.9993 217.7058 0001428 280.5394 267.0785 15.74069983  4487
STARLINK-36341          
1 67918U 26036Q   26073.91668981 -.01868001  00000+0 -29079-1 0  9997
2 67918  42.9994 218.3145 0001770 276.9196  25.0440 15.56432384  4481
STARLINK-36663          
1 67919U 26036R   26073.91668981 -.01916835  00000+0 -16567-1 0  9995
2 67919  42.9994 217.7525 0001371 282.5101 246.4749 15.71228996  4483
STARLINK-36375          
1 67920U 26036S   26073.91668981 -.01911101  00000+0 -21047-1 0  9997
2 67920  42.9996 217.9031 0001507 286.1255 182.3741 15.65382801  4481
STARLINK-36405          
1 67921U 26036T   26073.91668981 -.01873856  00000+0 -28944-1 0  9995
2 67921  42.9995 218.2821 0001814 272.7287  42.3942 15.56649373  4487
STARLINK-36383          
1 67922U 26036U   26073.87528457  .00429107  00000+0  19430-2 0  9998
2 67922  42.9986 217.8359 0002315 265.0568  95.0039 15.81994568  4493
STARLINK-36406          
1 67923U 26036V   26073.91668981 -.02308548  00000+0 -41926-1 0  9994
2 67923  42.9992 218.5239 0001522 279.0633 298.6355 15.52456648  4484
