[{"OBJECT_NAME":"STARLINK-36827","OBJECT_ID":"2026-036E","EPOCH":"2026-03-14T22:00:01.999584","MEAN_MOTION":15.67794035,"ECCENTRICITY":0.00015789,"INCLINATION":42.9994,"RA_OF_ASC_NODE":217.9522,"ARG_OF_PERICENTER":286.6296,"MEAN_ANOMALY":162.6497,"EPHEMERIS_TYPE":0,"CLASSIFICATION_TYPE":"U","NORAD_CAT_ID":67908,"ELEMENT_SET_NO":999,"REV_AT_EPOCH":448,"BSTAR":-0.019045316,"MEAN_MOTION_DOT":-0.01908923,"MEAN_MOTION_DDOT":0},{"OBJECT_NAME":"STARLINK-36822","OBJECT_ID":"2026-036F","EPOCH":"2026-03-14T22:00:01.999584","MEAN_MOTION":15.63812007,"ECCENTRICITY":0.00017646,"INCLINATION":42.9995,"RA_OF_ASC_NODE":218.0797,"ARG_OF_PERICENTER":285.2563,"MEAN_ANOMALY":112.8059,"EPHEMERIS_TYPE":0,"CLASSIFICATION_TYPE":"U","NORAD_CAT_ID":67909,"ELEMENT_SET_NO":999,"REV_AT_EPOCH":448,"BSTAR":-0.02223165,"MEAN_MOTION_DOT":-0.01897128,"MEAN_MOTION_DDOT":0},{"OBJECT_NAME":"STARLINK-36847","OBJECT_ID":"2026-036G","EPOCH":"2026-03-14T22:00:01.999584","MEAN_MOTION":15.62951324,"ECCENTRICITY":0.00018648,"INCLINATION":42.9995,"RA_OF_ASC_NODE":218.1027,"ARG_OF_PERICENTER":284.9952,"MEAN_ANOMALY":103.5299,"EPHEMERIS_TYPE":0,"CLASSIFICATION_TYPE":"U","NORAD_CAT_ID":67910,"ELEMENT_SET_NO":999,"REV_AT_EPOCH":448,"BSTAR":-0.022999898,"MEAN_MOTION_DOT":-0.0189673,"MEAN_MOTION_DDOT":0},{"OBJECT_NAME":"STARLINK-36736","OBJECT_ID":"2026-036H","EPOCH":"2026-03-14T22:00:01.999584","MEAN_MOTION":15.71246861,"ECCENTRICITY":0.00014464,"INCLINATION":42.9993,"RA_OF_ASC_NODE":217.827,"ARG_OF_PERICENTER":287.1236,"MEAN_ANOMALY":212.1325,"EPHEMERIS_TYPE":0,"CLASSIFICATION_TYPE":"U","NORAD_CAT_ID":67911,"ELEMENT_SET_NO":999,"REV_AT_EPOCH":448,"BSTAR":-0.016528682,"MEAN_MOTION_DOT":-0.0191422,"MEAN_MOTION_DDOT":0},{"OBJECT_NAME":"STARLINK-36676","OBJECT_ID":"2026-036J","EPOCH":"2026-03-14T22:00:01.999584","MEAN_MOTION":15.69135939,"ECCENTRICITY":0.00014229,"INCLINATION":42.9992,"RA_OF_ASC_NODE":217.8708,"ARG_OF_PERICENTER":285.4096,"MEAN_ANOMALY":196.6125,"EPHEMERIS_TYPE":0,"CLASSIFICATION_TYPE":"U","NORAD_CAT_ID":67912,"ELEMENT_SET_NO":999,"REV_AT_EPOCH":448,"BSTAR":-0.018066278,"MEAN_MOTION_DOT":-0.01913913,"MEAN_MOTION_DDOT":0},{"OBJECT_NAME":"STARLINK-36690","OBJECT_ID":"2026-036K","EPOCH":"2026-03-14T22:00:01.999584","MEAN_MOTION":15.69155394,"ECCENTRICITY":0.00014126,"INCLINATION":42.9992,"RA_OF_ASC_NODE":217.8587,"ARG_OF_PERICENTER":277.8455,"MEAN_ANOMALY":208.9236,"EPHEMERIS_TYPE":0,"CLASSIFICATION_TYPE":"U","NORAD_CAT_ID":67913,"ELEMENT_SET_NO":999,"REV_AT_EPOCH":448,"BSTAR":-0.017807239,"MEAN_MOTION_DOT":-0.01890916,"MEAN_MOTION_DDOT":0},{"OBJECT_NAME":"STARLINK-36724","OBJECT_ID":"2026-036L","EPOCH":"2026-03-14T22:00:01.999584","MEAN_MOTION":15.69539927,"ECCENTRICITY":0.0001121,"INCLINATION":42.9992,"RA_OF_ASC_NODE":217.826,"ARG_OF_PERICENTER":287.5034,"MEAN_ANOMALY":212.0024,"EPHEMERIS_TYPE":0,"CLASSIFICATION_TYPE":"U","NORAD_CAT_ID":67914,"ELEMENT_SET_NO":999,"REV_AT_EPOCH":448,"BSTAR":-0.017528818,"MEAN_MOTION_DOT":-0.01891297,"MEAN_MOTION_DDOT":0},{"OBJECT_NAME":"STARLINK-36723","OBJECT_ID":"2026-036M","EPOCH":"2026-03-14T22:00:01.999584","MEAN_MOTION":15.70909016,"ECCENTRICITY":0.00013651,"INCLINATION":42.9993,"RA_OF_ASC_NODE":217.803,"ARG_OF_PERICENTER":282.489,"MEAN_ANOMALY":226.3728,"EPHEMERIS_TYPE":0,"CLASSIFICATION_TYPE":"U","NORAD_CAT_ID":67915,"ELEMENT_SET_NO":999,"REV_AT_EPOCH":448,"BSTAR":-0.016800148,"MEAN_MOTION_DOT":-0.01917408,"MEAN_MOTION_DDOT":0},{"OBJECT_NAME":"STARLINK-36721","OBJECT_ID":"2026-036N","EPOCH":"2026-03-14T22:00:01.999584","MEAN_MOTION":15.70941174,"ECCENTRICITY":0.00013499,"INCLINATION":42.9993,"RA_OF_ASC_NODE":217.7807,"ARG_OF_PERICENTER":281.4888,"MEAN_ANOMALY":236.2603,"EPHEMERIS_TYPE":0,"CLASSIFICATION_TYPE":"U","NORAD_CAT_ID":67916,"ELEMENT_SET_NO":999,"REV_AT_EPOCH":448,"BSTAR":-0.016749362,"MEAN_MOTION_DOT":-0.01914576,"MEAN_MOTION_DDOT":0},{"OBJECT_NAME":"STARLINK-36722","OBJECT_ID":"2026-036P","EPOCH":"2026-03-14T22:00:01.999584","MEAN_MOTION":15.74069983,"ECCENTRICITY":0.00014289,"INCLINATION":42.9993,"RA_OF_ASC_NODE":217.7058,"ARG_OF_PERICENTER":280.5394,"MEAN_ANOMALY":267.0785,"EPHEMERIS_TYPE":0,"CLASSIFICATION_TYPE":"U","NORAD_CAT_ID":67917,"ELEMENT_SET_NO":999,"REV_AT_EPOCH":448,"BSTAR":-0.014669899,"MEAN_MOTION_DOT":-0.01880836,"MEAN_MOTION_DDOT":0},{"OBJECT_NAME":"STARLINK-36341","OBJECT_ID":"2026-036Q","EPOCH":"2026-03-14T22:00:01.999584","MEAN_MOTION":15.56432384,"ECCENTRICITY":0.00017706,"INCLINATION":42.9994,"RA_OF_ASC_NODE":218.3145,"ARG_OF_PERICENTER":276.9196,"MEAN_ANOMALY":25.044,"EPHEMERIS_TYPE":0,"CLASSIFICATION_TYPE":"U","NORAD_CAT_ID":67918,"ELEMENT_SET_NO":999,"REV_AT_EPOCH":448,"BSTAR":-0.029078823,"MEAN_MOTION_DOT":-0.01868001,"MEAN_MOTION_DDOT":0},{"OBJECT_NAME":"STARLINK-36663","OBJECT_ID":"2026-036R","EPOCH":"2026-03-14T22:00:01.999584","MEAN_MOTION":15.71228996,"ECCENTRICITY":0.00013712,"INCLINATION":42.9994,"RA_OF_ASC_NODE":217.7525,"ARG_OF_PERICENTER":282.5101,"MEAN_ANOMALY":246.4749,"EPHEMERIS_TYPE":0,"CLASSIFICATION_TYPE":"U","NORAD_CAT_ID":67919,"ELEMENT_SET_NO":999,"REV_AT_EPOCH":448,"BSTAR":-0.016567318,"MEAN_MOTION_DOT":-0.01916835,"MEAN_MOTION_DDOT":0},{"OBJECT_NAME":"STARLINK-36375","OBJECT_ID":"2026-036S","EPOCH":"2026-03-14T22:00:01.999584","MEAN_MOTION":15.65382801,"ECCENTRICITY":0.00015079,"INCLINATION":42.9996,"RA_OF_ASC_NODE":217.9031,"ARG_OF_PERICENTER":286.1255,"MEAN_ANOMALY":182.3741,"EPHEMERIS_TYPE":0,"CLASSIFICATION_TYPE":"U","NORAD_CAT_ID":67920,"ELEMENT_SET_NO":999,"REV_AT_EPOCH":448,"BSTAR":-0.021047076,"MEAN_MOTION_DOT":-0.01911101,"MEAN_MOTION_DDOT":0},{"OBJECT_NAME":"STARLINK-36405","OBJECT_ID":"2026-036T","EPOCH":"2026-03-14T22:00:01.999584","MEAN_MOTION":15.56649373,"ECCENTRICITY":0.00018142,"INCLINATION":42.9995,"RA_OF_ASC_NODE":218.2821,"ARG_OF_PERICENTER":272.7287,"MEAN_ANOMALY":42.3942,"EPHEMERIS_TYPE":0,"CLASSIFICATION_TYPE":"U","NORAD_CAT_ID":67921,"ELEMENT_SET_NO":999,"REV_AT_EPOCH":448,"BSTAR":-0.028944017,"MEAN_MOTION_DOT":-0.01873856,"MEAN_MOTION_DDOT":0},{"OBJECT_NAME":"STARLINK-36383","OBJECT_ID":"2026-036U","EPOCH":"2026-03-14T21:00:24.586848","MEAN_MOTION":15.81994568,"ECCENTRICITY":0.00023154,"INCLINATION":42.9986,"RA_OF_ASC_NODE":217.8359,"ARG_OF_PERICENTER":265.0568,"MEAN_ANOMALY":95.0039,"EPHEMERIS_TYPE":0,"CLASSIFICATION_TYPE":"U","NORAD_CAT_ID":67922,"ELEMENT_SET_NO":999,"REV_AT_EPOCH":449,"BSTAR":0.0019429946,"MEAN_MOTION_DOT":0.00429107,"MEAN_MOTION_DDOT":0},{"OBJECT_NAME":"STARLINK-36406","OBJECT_ID":"2026-036V","EPOCH":"2026-03-14T22:00:01.999584","MEAN_MOTION":15.52456648,"ECCENTRICITY":0.00015222,"INCLINATION":42.9992,"RA_OF_ASC_NODE":218.5239,"ARG_OF_PERICENTER":279.0633,"MEAN_ANOMALY":298.6355,"EPHEMERIS_TYPE":0,"CLASSIFICATION_TYPE":"U","NORAD_CAT_ID":67923,"ELEMENT_SET_NO":999,"REV_AT_EPOCH":448,"BSTAR":-0.04192644,"MEAN_MOTION_DOT":-0.02308548,"MEAN_MOTION_DDOT":0}]
